NORAD_CAT_ID,OBJECT_NAME,OBJECT_TYPE,EPOCH,MEAN_MOTION,ECCENTRICITY,INCLINATION,RA_OF_ASC_NODE,ARG_OF_PERICENTER,MEAN_ANOMALY,BSTAR,MEAN_MOTION_DOT,MEAN_MOTION_DDOT,TLE_LINE0,TLE_LINE1,TLE_LINE2,SEMIMAJOR_AXIS,PERIOD,APOGEE,PERIGEE,DECAYED
52357.0,STARLINK-3821,PAYLOAD,2023-12-04 08:04:48,15.08852412,0.0002099,53.2198,308.7633,122.2831,237.8365,0.00011428,1.532e-05,0.0,0 STARLINK-3821,1 52357U 22045AC  23338.33667070  .00001532  00000-0  11428-3 0  9996,2 52357  53.2198 308.7633 0002099 122.2831 237.8365 15.08852412 91034,6917.842,95.437,541.16,538.255,0.0
52357.0,STARLINK-3821,PAYLOAD,2023-12-04 22:23:17,15.08829667,0.0002211,53.2188,306.0822,116.4405,243.6814,0.00028493,4.248e-05,0.0,0 STARLINK-3821,1 52357U 22045AC  23338.93284153  .00004248  00000-0  28493-3 0  9996,2 52357  53.2188 306.0822 0002211 116.4405 243.6814 15.08829667 91122,6917.912,95.438,541.307,538.247,0.0
52357.0,STARLINK-3821,PAYLOAD,2023-12-05 03:09:26,15.08836001,0.0002289,53.2185,305.1908,116.977,243.1456,0.00032206,4.841e-05,0.0,0 STARLINK-3821,1 52357U 22045AC  23339.13155772  .00004841  00000-0  32206-3 0  9999,2 52357  53.2185 305.1908 0002289 116.9770 243.1456 15.08836001 91159,6917.893,95.438,541.341,538.174,0.0
52357.0,STARLINK-3821,PAYLOAD,2023-12-05 07:55:36,15.08841355,0.0002121,53.2183,304.3013,104.1248,255.998,0.00038177,5.793e-05,0.0,0 STARLINK-3821,1 52357U 22045AC  23339.33027997  .00005793  00000-0  38177-3 0  9998,2 52357  53.2183 304.3013 0002121 104.1248 255.9980 15.08841355 91183,6917.876,95.437,541.209,538.274,0.0
52357.0,STARLINK-3821,PAYLOAD,2023-12-05 20:38:41,15.08838911,0.0002451,53.2178,301.9171,124.0895,236.033,6.582e-05,7.59e-06,0.0,0 STARLINK-3821,1 52357U 22045AC  23339.86020318  .00000759  00000-0  65820-4 0  9999,2 52357  53.2178 301.9171 0002451 124.0895 236.0330 15.08838911 91262,6917.884,95.438,541.444,538.053,0.0
52357.0,STARLINK-3821,PAYLOAD,2023-12-06 03:00:13,15.08845973,0.0002174,53.2177,300.7286,104.6253,255.498,1.0033e-05,-1.29e-06,0.0,0 STARLINK-3821,1 52357U 22045AC  23340.12515822 -.00000129  00000-0  10033-4 0  9997,2 52357  53.2177 300.7286 0002174 104.6253 255.4980 15.08845973 91306,6917.862,95.437,541.231,538.223,0.0
52357.0,STARLINK-3821,PAYLOAD,2023-12-06 20:29:28,15.08837706,0.0002092,53.2173,297.4655,99.6868,260.436,-1.8974e-05,-5.9e-06,0.0,0 STARLINK-3821,1 52357U 22045AC  23340.85380320 -.00000590  00000-0 -18974-4 0  9995,2 52357  53.2173 297.4655 0002092  99.6868 260.4360 15.08837706 91413,6917.887,95.438,541.2,538.305,0.0
52357.0,STARLINK-3821,PAYLOAD,2023-12-07 04:26:24,15.08836625,0.0002107,53.2186,295.9777,107.4062,252.7161,-2.9317e-05,-7.55e-06,0.0,0 STARLINK-3821,1 52357U 22045AC  23341.18500885 -.00000755  00000-0 -29317-4 0  9998,2 52357  53.2186 295.9777 0002107 107.4062 252.7161 15.08836625 91463,6917.891,95.438,541.213,538.298,0.0
52357.0,STARLINK-3821,PAYLOAD,2023-12-08 04:17:11,15.08843066,0.000206,53.2179,291.516,93.0661,267.0567,6.4528e-06,-1.86e-06,0.0,0 STARLINK-3821,1 52357U 22045AC  23342.17860550 -.00000186  00000-0  64528-5 0  9997,2 52357  53.2179 291.5160 0002060  93.0661 267.0567 15.08843066 91619,6917.871,95.437,541.161,538.311,0.0
52357.0,STARLINK-3821,PAYLOAD,2023-12-09 05:43:21,15.08846665,0.0001816,53.218,286.7572,99.7904,260.3293,0.00014836,2.074e-05,0.0,0 STARLINK-3821,1 52357U 22045AC  23343.23844006  .00002074  00000-0  14836-3 0  9995,2 52357  53.2180 286.7572 0001816  99.7904 260.3293 15.08846665 91772,6917.86,95.437,540.981,538.469,0.0
52357.0,STARLINK-3821,PAYLOAD,2023-12-10 05:34:08,15.08839936,0.0001789,53.2181,282.2908,108.8223,251.2963,2.064e-05,4e-07,0.0,0 STARLINK-3821,1 52357U 22045AC  23344.23204684  .00000040  00000-0  20640-4 0  9990,2 52357  53.2181 282.2908 0001789 108.8223 251.2963 15.08839936 91925,6917.881,95.438,540.983,538.508,0.0
52357.0,STARLINK-3821,PAYLOAD,2023-12-11 02:14:09,15.08836485,0.0002042,53.219,278.4252,114.5669,245.5536,0.00021519,3.138e-05,0.0,0 STARLINK-3821,1 52357U 22045AC  23345.09316120  .00003138  00000-0  21519-3 0  9990,2 52357  53.2190 278.4252 0002042 114.5669 245.5536 15.08836485 92058,6917.891,95.438,541.169,538.343,0.0
52357.0,STARLINK-3821,PAYLOAD,2023-12-11 22:54:10,15.08839823,0.0001721,53.2187,274.5661,78.6938,281.4248,7.4932e-05,9.05e-06,0.0,0 STARLINK-3821,1 52357U 22045AC  23345.95428572  .00000905  00000-0  74932-4 0  9997,2 52357  53.2187 274.5661 0001721  78.6938 281.4248 15.08839823 92189,6917.881,95.438,540.936,538.555,0.0
52357.0,STARLINK-3821,PAYLOAD,2023-12-12 02:04:56,15.0884145,0.0001811,53.2174,273.9725,80.8929,279.2268,8.3284e-05,1.038e-05,0.0,0 STARLINK-3821,1 52357U 22045AC  23346.08676466  .00001038  00000-0  83284-4 0  9997,2 52357  53.2174 273.9725 0001811  80.8929 279.2268 15.08841450 92203,6917.876,95.437,540.994,538.488,0.0
52357.0,STARLINK-3821,PAYLOAD,2023-12-13 01:55:43,15.08846028,0.0001804,53.2176,269.511,86.8114,273.3085,7.6605e-05,9.31e-06,0.0,0 STARLINK-3821,1 52357U 22045AC  23347.08036128  .00000931  00000-0  76605-4 0  9993,2 52357  53.2176 269.5110 0001804  86.8114 273.3085 15.08846028 92352,6917.862,95.437,540.975,538.479,0.0
52357.0,STARLINK-3821,PAYLOAD,2023-12-13 22:35:44,15.08840306,0.0001796,53.2174,265.6447,94.2242,265.8955,3.3846e-05,2.51e-06,0.0,0 STARLINK-3821,1 52357U 22045AC  23347.94148422  .00000251  00000-0  33846-4 0  9994,2 52357  53.2174 265.6447 0001796  94.2242 265.8955 15.08840306 92484,6917.879,95.438,540.987,538.502,0.0
52357.0,STARLINK-3821,PAYLOAD,2023-12-14 00:11:07,15.08841248,0.00018,53.2173,265.3476,93.0195,267.1003,4.0886e-05,3.63e-06,0.0,0 STARLINK-3821,1 52357U 22045AC  23348.00772339  .00000363  00000-0  40886-4 0  9998,2 52357  53.2173 265.3476 0001800  93.0195 267.1003 15.08841248 92498,6917.877,95.437,540.987,538.496,0.0
52357.0,STARLINK-3821,PAYLOAD,2023-12-14 22:26:31,15.08840261,0.0001812,53.2171,261.1843,99.006,261.1137,2.6092e-05,1.27e-06,0.0,0 STARLINK-3821,1 52357U 22045AC  23348.93508436  .00000127  00000-0  26092-4 0  9996,2 52357  53.2171 261.1843 0001812  99.0060 261.1137 15.08840261 92630,6917.88,95.438,540.998,538.491,0.0
52357.0,STARLINK-3821,PAYLOAD,2023-12-15 00:01:54,15.08840769,0.00018,53.2173,260.8869,96.3839,263.7358,2.644e-05,1.33e-06,0.0,0 STARLINK-3821,1 52357U 22045AC  23349.00132408  .00000133  00000-0  26440-4 0  9991,2 52357  53.2173 260.8869 0001800  96.3839 263.7358 15.08840769 92644,6917.878,95.438,540.988,538.498,0.0
52357.0,STARLINK-3821,PAYLOAD,2023-12-15 22:17:19,15.0883016,0.0001673,53.2167,256.727,90.4827,269.6357,-2.257e-05,-6.47e-06,0.0,0 STARLINK-3821,1 52357U 22045AC  23349.92869644 -.00000647  00000-0 -22570-4 0  9993,2 52357  53.2167 256.7270 0001673  90.4827 269.6357 15.08830160 92780,6917.91,95.438,540.933,538.618,0.0
52357.0,STARLINK-3821,PAYLOAD,2023-12-16 01:28:05,15.08830863,0.000168,53.217,256.1333,79.3784,280.7398,-2.3646e-05,-6.64e-06,0.0,0 STARLINK-3821,1 52357U 22045AC  23350.06117730 -.00000664  00000-0 -23646-4 0  9996,2 52357  53.2170 256.1333 0001680  79.3784 280.7398 15.08830863 92806,6917.908,95.438,540.936,538.611,0.0
52357.0,STARLINK-3821,PAYLOAD,2023-12-16 22:08:05,15.08838794,0.0001428,53.2164,252.2693,99.7176,260.3977,0.00013503,1.862e-05,0.0,0 STARLINK-3821,1 52357U 22045AC  23350.92228735  .00001862  00000-0  13503-3 0  9998,2 52357  53.2164 252.2693 0001428  99.7176 260.3977 15.08838794 92938,6917.884,95.438,540.737,538.761,0.0
52357.0,STARLINK-3821,PAYLOAD,2023-12-17 01:18:51,15.08829848,0.0001457,53.2169,251.6765,89.8914,270.2245,0.00039179,5.951e-05,0.0,0 STARLINK-3821,1 52357U 22045AC  23351.05476722  .00005951  00000-0  39179-3 0  9994,2 52357  53.2169 251.6765 0001457  89.8914 270.2245 15.08829848 92958,6917.911,95.438,540.784,538.768,0.0
52357.0,STARLINK-3821,PAYLOAD,2023-12-17 21:58:52,15.08843453,0.0001476,53.2173,247.8027,102.8204,257.2954,0.00014508,2.022e-05,0.0,0 STARLINK-3821,1 52357U 22045AC  23351.91588615  .00002022  00000-0  14508-3 0  9999,2 52357  53.2173 247.8027 0001476 102.8204 257.2954 15.08843453 93085,6917.87,95.437,540.756,538.714,0.0
52357.0,STARLINK-3821,PAYLOAD,2023-12-17 23:34:15,15.08847369,0.0001427,53.2155,247.5096,101.4687,258.6466,0.00017056,2.428e-05,0.0,0 STARLINK-3821,1 52357U 22045AC  23351.98212346  .00002428  00000-0  17056-3 0  9992,2 52357  53.2155 247.5096 0001427 101.4687 258.6466 15.08847369 93098,6917.858,95.437,540.71,538.736,0.0
52357.0,STARLINK-3821,PAYLOAD,2023-12-18 20:14:16,15.08845046,0.0001506,53.2171,243.6444,100.887,259.2292,-5.5288e-05,-1.168e-05,0.0,0 STARLINK-3821,1 52357U 22045AC  23352.84325021 -.00001168  00000-0 -55288-4 0  9995,2 52357  53.2171 243.6444 0001506 100.8870 259.2292 15.08845046 93224,6917.865,95.437,540.772,538.688,0.0
52357.0,STARLINK-3821,PAYLOAD,2023-12-18 21:49:39,15.0884435,0.0001414,53.2171,243.3431,97.4112,262.704,-5.8473e-05,-1.219e-05,0.0,0 STARLINK-3821,1 52357U 22045AC  23352.90949032 -.00001219  00000-0 -58473-4 0  9992,2 52357  53.2171 243.3431 0001414  97.4112 262.7040 15.08844350 93233,6917.867,95.437,540.71,538.754,0.0
52357.0,STARLINK-3821,PAYLOAD,2023-12-18 23:25:03,15.08844157,0.0001433,53.2164,243.0472,97.977,262.1384,-4.2629e-05,-9.66e-06,0.0,0 STARLINK-3821,1 52357U 22045AC  23352.97572994 -.00000966  00000-0 -42629-4 0  9992,2 52357  53.2164 243.0472 0001433  97.9770 262.1384 15.08844157 93244,6917.868,95.437,540.724,538.741,0.0
52357.0,STARLINK-3821,PAYLOAD,2023-12-19 21:40:27,15.08841845,0.0001423,53.2164,238.8835,92.2345,267.881,-6.841e-06,-3.97e-06,0.0,0 STARLINK-3821,1 52357U 22045AC  23353.90309146 -.00000397  00000-0 -68410-5 0  9998,2 52357  53.2164 238.8835 0001423  92.2345 267.8810 15.08841845 93386,6917.875,95.437,540.724,538.755,0.0
52357.0,STARLINK-3821,PAYLOAD,2023-12-20 21:31:14,15.08837877,0.000131,53.2163,234.4235,88.9413,271.1729,0.00010456,1.376e-05,0.0,0 STARLINK-3821,1 52357U 22045AC  23354.89669341  .00001376  00000-0  10456-3 0  9994,2 52357  53.2163 234.4235 0001310  88.9413 271.1729 15.08837877 93538,6917.887,95.438,540.658,538.846,0.0
